{
  "norad_id": 53201,
  "name": "STARLINK-4405",
  "history": [
    {
      "epoch": "2026-03-28T16:52:06.224448",
      "apogee_km": 549.996688803416,
      "perigee_km": 549.0070063176536,
      "latitude_deg": 22.814227237920708,
      "longitude_deg": -72.42641727998853,
      "semi_major_axis_km": 6927.6388475605345,
      "eccentricity": 7.143e-05,
      "inclination_deg": 97.6043,
      "raan_deg": 150.0134,
      "arg_perigee_deg": 132.922,
      "mean_anomaly_deg": 227.2067,
      "mean_motion_rev_day": 15.05653034
    },
    {
      "epoch": "2026-03-29T04:01:59.939040",
      "apogee_km": 550.1363480985092,
      "perigee_km": 548.7771542045339,
      "latitude_deg": 84.18057115911117,
      "longitude_deg": -27.766734400065616,
      "semi_major_axis_km": 6927.593751151521,
      "eccentricity": 9.81e-05,
      "inclination_deg": 97.6039,
      "raan_deg": 150.4718,
      "arg_perigee_deg": 113.2524,
      "mean_anomaly_deg": 246.8806,
      "mean_motion_rev_day": 15.05667736
    }
  ]
}